{
  "type": "FeatureCollection",
  "features": [
    {
      "type": "Feature",
      "properties": {
        "norad_id": 66898,
        "name": "STARLINK-36065",
        "group": "last-30-days",
        "lat": -33.771080434165974,
        "lon": -25.10548504974758,
        "alt_km": 403.8415510444611,
        "timestamp": "2025-12-26T13:39:17.666467+00:00",
        "meta_object_name": "STARLINK-36065",
        "meta_object_id": "2025-283W",
        "meta_epoch": "2025-12-26T06:00:02.999808",
        "meta_mean_motion": 15.57472431,
        "meta_eccentricity": 0.00011929,
        "meta_inclination": 53.1597,
        "meta_ra_of_asc_node": 6.5266,
        "meta_arg_of_pericenter": 93.1192,
        "meta_mean_anomaly": 234.6116,
        "meta_ephemeris_type": 0,
        "meta_classification_type": "U",
        "meta_norad_cat_id": 66898,
        "meta_element_set_no": 999,
        "meta_rev_at_epoch": 460,
        "meta_bstar": -0.030693018,
        "meta_mean_motion_dot": -0.02050472,
        "meta_mean_motion_ddot": 0,
        "tle_line1": "1 66898U 25283W   25360.25003472 -.02050472  00000+0 -30693-1 0  9999",
        "tle_line2": "2 66898  53.1597   6.5266 0001192  93.1192 234.6116 15.57472431  4604"
      },
      "geometry": {
        "type": "Point",
        "coordinates": [
          -25.10548504974758,
          -33.771080434165974
        ]
      }
    },
    {
      "type": "Feature",
      "properties": {
        "norad_id": 66899,
        "name": "STARLINK-36064",
        "group": "last-30-days",
        "lat": -32.434685673000004,
        "lon": -23.471875248456925,
        "alt_km": 403.7795113667662,
        "timestamp": "2025-12-26T13:39:17.666480+00:00",
        "meta_object_name": "STARLINK-36064",
        "meta_object_id": "2025-283X",
        "meta_epoch": "2025-12-26T06:00:02.999808",
        "meta_mean_motion": 15.57468668,
        "meta_eccentricity": 0.000124,
        "meta_inclination": 53.1595,
        "meta_ra_of_asc_node": 6.5234,
        "meta_arg_of_pericenter": 93.9555,
        "meta_mean_anomaly": 235.6956,
        "meta_ephemeris_type": 0,
        "meta_classification_type": "U",
        "meta_norad_cat_id": 66899,
        "meta_element_set_no": 999,
        "meta_rev_at_epoch": 454,
        "meta_bstar": -0.030639843,
        "meta_mean_motion_dot": -0.02047068,
        "meta_mean_motion_ddot": 0,
        "tle_line1": "1 66899U 25283X   25360.25003472 -.02047068  00000+0 -30640-1 0  9999",
        "tle_line2": "2 66899  53.1595   6.5234 0001240  93.9555 235.6956 15.57468668  4546"
      },
      "geometry": {
        "type": "Point",
        "coordinates": [
          -23.471875248456925,
          -32.434685673000004
        ]
      }
    },
    {
      "type": "Feature",
      "properties": {
        "norad_id": 66900,
        "name": "STARLINK-36074",
        "group": "last-30-days",
        "lat": -31.07863124953791,
        "lon": -21.888321641988654,
        "alt_km": 403.677393253779,
        "timestamp": "2025-12-26T13:39:17.666490+00:00",
        "meta_object_name": "STARLINK-36074",
        "meta_object_id": "2025-283Y",
        "meta_epoch": "2025-12-26T06:00:02.999808",
        "meta_mean_motion": 15.57470653,
        "meta_eccentricity": 0.00012492,
        "meta_inclination": 53.1596,
        "meta_ra_of_asc_node": 6.519,
        "meta_arg_of_pericenter": 93.6377,
        "meta_mean_anomaly": 237.9283,
        "meta_ephemeris_type": 0,
        "meta_classification_type": "U",
        "meta_norad_cat_id": 66900,
        "meta_element_set_no": 999,
        "meta_rev_at_epoch": 460,
        "meta_bstar": -0.030673492,
        "meta_mean_motion_dot": -0.0204922,
        "meta_mean_motion_ddot": 0,
        "tle_line1": "1 66900U 25283Y   25360.25003472 -.02049220  00000+0 -30673-1 0  9990",
        "tle_line2": "2 66900  53.1596   6.5190 0001249  93.6377 237.9283 15.57470653  4601"
      },
      "geometry": {
        "type": "Point",
        "coordinates": [
          -21.888321641988654,
          -31.07863124953791
        ]
      }
    },
    {
      "type": "Feature",
      "properties": {
        "norad_id": 66901,
        "name": "STARLINK-36043",
        "group": "last-30-days",
        "lat": -29.702451840538085,
        "lon": -20.34841479707512,
        "alt_km": 403.5317839573672,
        "timestamp": "2025-12-26T13:39:17.666500+00:00",
        "meta_object_name": "STARLINK-36043",
        "meta_object_id": "2025-283Z",
        "meta_epoch": "2025-12-26T06:00:02.999808",
        "meta_mean_motion": 15.57474908,
        "meta_eccentricity": 0.0001222,
        "meta_inclination": 53.1597,
        "meta_ra_of_asc_node": 6.5146,
        "meta_arg_of_pericenter": 90.4675,
        "meta_mean_anomaly": 243.015,
        "meta_ephemeris_type": 0,
        "meta_classification_type": "U",
        "meta_norad_cat_id": 66901,
        "meta_element_set_no": 999,
        "meta_rev_at_epoch": 460,
        "meta_bstar": -0.030800249,
        "meta_mean_motion_dot": -0.0205706,
        "meta_mean_motion_ddot": 0,
        "tle_line1": "1 66901U 25283Z   25360.25003472 -.02057060  00000+0 -30800-1 0  9994",
        "tle_line2": "2 66901  53.1597   6.5146 0001222  90.4675 243.0150 15.57474908  4609"
      },
      "geometry": {
        "type": "Point",
        "coordinates": [
          -20.34841479707512,
          -29.702451840538085
        ]
      }
    },
    {
      "type": "Feature",
      "properties": {
        "norad_id": 66902,
        "name": "STARLINK-35983",
        "group": "last-30-days",
        "lat": -28.309664699125594,
        "lon": -18.85138232989482,
        "alt_km": 403.4077262063511,
        "timestamp": "2025-12-26T13:39:17.666510+00:00",
        "meta_object_name": "STARLINK-35983",
        "meta_object_id": "2025-283AA",
        "meta_epoch": "2025-12-26T06:00:02.999808",
        "meta_mean_motion": 15.57473257,
        "meta_eccentricity": 0.00011992,
        "meta_inclination": 53.1596,
        "meta_ra_of_asc_node": 6.5104,
        "meta_arg_of_pericenter": 90.9969,
        "meta_mean_anomaly": 244.4017,
        "meta_ephemeris_type": 0,
        "meta_classification_type": "U",
        "meta_norad_cat_id": 66902,
        "meta_element_set_no": 999,
        "meta_rev_at_epoch": 460,
        "meta_bstar": -0.030733577,
        "meta_mean_motion_dot": -0.02052954,
        "meta_mean_motion_ddot": 0,
        "tle_line1": "1 66902U 25283AA  25360.25003472 -.02052954  00000+0 -30734-1 0  9998",
        "tle_line2": "2 66902  53.1596   6.5104 0001199  90.9969 244.4017 15.57473257  4600"
      },
      "geometry": {
        "type": "Point",
        "coordinates": [
          -18.85138232989482,
          -28.309664699125594
        ]
      }
    },
    {
      "type": "Feature",
      "properties": {
        "norad_id": 66903,
        "name": "STARLINK-36077",
        "group": "last-30-days",
        "lat": -26.900736563078073,
        "lon": -17.392425366747496,
        "alt_km": 403.29687940421627,
        "timestamp": "2025-12-26T13:39:17.666519+00:00",
        "meta_object_name": "STARLINK-36077",
        "meta_object_id": "2025-283AB",
        "meta_epoch": "2025-12-26T06:00:02.999808",
        "meta_mean_motion": 15.57472893,
        "meta_eccentricity": 0.00012063,
        "meta_inclination": 53.1595,
        "meta_ra_of_asc_node": 6.507,
        "meta_arg_of_pericenter": 92.0497,
        "meta_mean_anomaly": 245.2647,
        "meta_ephemeris_type": 0,
        "meta_classification_type": "U",
        "meta_norad_cat_id": 66903,
        "meta_element_set_no": 999,
        "meta_rev_at_epoch": 460,
        "meta_bstar": -0.030700162,
        "meta_mean_motion_dot": -0.0205094,
        "meta_mean_motion_ddot": 0,
        "tle_line1": "1 66903U 25283AB  25360.25003472 -.02050940  00000+0 -30700-1 0  9995",
        "tle_line2": "2 66903  53.1595   6.5070 0001206  92.0497 245.2647 15.57472893  4603"
      },
      "geometry": {
        "type": "Point",
        "coordinates": [
          -17.392425366747496,
          -26.900736563078073
        ]
      }
    },
    {
      "type": "Feature",
      "properties": {
        "norad_id": 66904,
        "name": "STARLINK-36059",
        "group": "last-30-days",
        "lat": -25.476387882678985,
        "lon": -15.97064865300646,
        "alt_km": 403.1649844552885,
        "timestamp": "2025-12-26T13:39:17.666529+00:00",
        "meta_object_name": "STARLINK-36059",
        "meta_object_id": "2025-283AC",
        "meta_epoch": "2025-12-26T06:00:02.999808",
        "meta_mean_motion": 15.57473205,
        "meta_eccentricity": 0.00011737,
        "meta_inclination": 53.1593,
        "meta_ra_of_asc_node": 6.502,
        "meta_arg_of_pericenter": 93.0543,
        "meta_mean_anomaly": 246.1763,
        "meta_ephemeris_type": 0,
        "meta_classification_type": "U",
        "meta_norad_cat_id": 66904,
        "meta_element_set_no": 999,
        "meta_rev_at_epoch": 460,
        "meta_bstar": -0.030693126,
        "meta_mean_motion_dot": -0.02050521,
        "meta_mean_motion_ddot": 0,
        "tle_line1": "1 66904U 25283AC  25360.25003472 -.02050521  00000+0 -30693-1 0  9992",
        "tle_line2": "2 66904  53.1593   6.5020 0001173  93.0543 246.1763 15.57473205  4600"
      },
      "geometry": {
        "type": "Point",
        "coordinates": [
          -15.97064865300646,
          -25.476387882678985
        ]
      }
    }
  ]
}